STARLINK-2758           
1 48638U 21044A   22275.90134760 -.00000850  00000+0 -38172-4 0  9997
2 48638  53.0561 345.1040 0001443  72.9443 287.1704 15.06397596 75708
STARLINK-2739           
1 48639U 21044B   22275.48851541  .00000639  00000+0  61815-4 0  9997
2 48639  53.0549 346.9629 0001540  54.8141 305.2992 15.06405284 74747
STARLINK-2736           
1 48640U 21044C   22275.61483541 -.00001945  00000+0 -11176-3 0  9992
2 48640  53.0573 346.6684 0001553  69.2140 290.9015 15.06386600 74754
STARLINK-2754           
1 48641U 21044D   22276.15799673  .00012150  00000+0  83297-3 0  9990
2 48641  53.0549 348.9444 0001632  50.1667 309.9465 15.06407444 75670
STARLINK-2646           
1 48642U 21044E   22275.64103089 -.00002379  00000+0 -14092-3 0  9995
2 48642  53.0553 351.2515 0001531  64.1565 295.9582 15.06391972 74695
STARLINK-2704           
1 48643U 21044F   22275.68894091 -.00001334  00000+0 -70657-4 0  9990
2 48643  53.0543 351.0515 0001660  65.9861 294.1301 15.06396276 74708
STARLINK-2695           
1 48644U 21044G   22276.15063115  .00021297  00000+0  14436-2 0  9998
2 48644  53.0549 348.9833 0001618  58.1287 301.9859 15.06419229 75612
STARLINK-2733           
1 48645U 21044H   22276.21328183  .00023511  00000+0  15912-2 0  9996
2 48645  53.0542 348.7102 0001626  50.0910 310.0221 15.06419009 75683
STARLINK-2732           
1 48646U 21044J   22276.20960037 -.00000169  00000+0  75777-5 0  9999
2 48646  53.0573 348.7159 0001388  72.3343 287.7798 15.06401756 75681
STARLINK-2691           
1 48647U 21044K   22275.47609148 -.00000572  00000+0 -19495-4 0  9994
2 48647  53.0547 352.0101 0001002 108.8212 251.2886 15.06398217 74670
STARLINK-2521           
1 48648U 21044L   22275.62356167 -.00003615  00000+0 -22402-3 0  9994
2 48648  53.0555 351.5099 0001436  58.9549 301.1580 15.06387618 74690
STARLINK-2673           
1 48649U 21044M   22275.53875969 -.00000283  00000+0 -75756-7 0  9993
2 48649  53.0550 351.7300 0001654  57.2596 302.8552 15.06397127 74670
STARLINK-2672           
1 48650U 21044N   22275.73412060 -.00001600  00000+0 -88551-4 0  9994
2 48650  53.0547 350.8577 0001538  66.2645 293.8505 15.06396054 74709
STARLINK-2731           
1 48651U 21044P   22275.73043066 -.00001600  00000+0 -88507-4 0  9992
2 48651  53.0556 350.8670 0001511  55.3583 304.7548 15.06400039 74703
STARLINK-2727           
1 48652U 21044Q   22275.72674511 -.00001846  00000+0 -10510-3 0  9997
2 48652  53.0540 350.8943 0001527  58.2187 301.8951 15.06387560 74708
STARLINK-2720           
1 48653U 21044R   22275.92210388 -.00001137  00000+0 -57420-4 0  9993
2 48653  53.0569 350.0105 0001628  65.8731 294.2428 15.06398849 75575
STARLINK-2651           
1 48654U 21044S   22275.91843657  .00005026  00000+0  35645-3 0  9997
2 48654  53.0557 350.0301 0001548  79.9445 280.1719 15.06360381 75634
STARLINK-2657           
1 48655U 21044T   22276.18011523  .00009921  00000+0  68393-3 0  9991
2 48655  53.0553 348.8529 0001624  54.4035 305.7106 15.06402964 75612
STARLINK-2701           
1 48656U 21044U   22276.17643323 -.00000410  00000+0 -86527-5 0  9997
2 48656  53.0565 348.8715 0001608  56.8357 303.2786 15.06394967 75618
STARLINK-2734           
1 48657U 21044V   22275.90734267 -.00000045  00000+0  15865-4 0  9995
2 48657  53.0563 350.0671 0001660  59.7814 300.3340 15.06411729 75633
STARLINK-2647           
1 48658U 21044W   22275.70462781 -.00003542  00000+0 -21907-3 0  9992
2 48658  53.0539 350.9885 0001765  59.2767 300.8395 15.06388187 75604
STARLINK-2717           
1 48659U 21044X   22275.89999204 -.00001919  00000+0 -10994-3 0  9998
2 48659  53.0577 350.1079 0001714  55.2640 304.8510 15.06395154 75575
STARLINK-2688           
1 48660U 21044Y   22275.69726608 -.00002014  00000+0 -11637-3 0  9996
2 48660  53.0574 351.0157 0001306  71.9847 288.1284 15.06390833 74707
STARLINK-2708           
1 48661U 21044Z   22276.16260460  .00010012  00000+0  68966-3 0  9991
2 48661  53.0542 338.9119 0002076  48.8052 311.3116 15.06421094 75811
STARLINK-2726           
1 48662U 21044AA  22275.89354088 -.00000090  00000+0  12875-4 0  9996
2 48662  53.0553 340.1444 0001528  67.2655 292.8495 15.06395950 75718
STARLINK-2667           
1 48663U 21044AB  22275.55811843 -.00001399  00000+0 -75053-4 0  9998
2 48663  53.0573 341.6434 0001611  76.4591 283.6577 15.06382403 74829
STARLINK-2709           
1 48664U 21044AC  22276.21789866  .00000388  00000+0  44978-4 0  9999
2 48664  53.0543 338.6797 0001742  44.0973 316.0154 15.06395051 75821
STARLINK-2653           
1 48665U 21044AD  22275.70091967 -.00000157  00000+0  83696-5 0  9997
2 48665  53.0571 340.9860 0001770  58.3225 301.7936 15.06395747 74841
STARLINK-2666           
1 48666U 21044AE  22276.17740594  .00000186  00000+0  31379-4 0  9998
2 48666  53.0554 339.3396 0001499  58.2450 301.8685 15.06396523 75808
STARLINK-2735           
1 48667U 21044AF  22276.21421598 -.00000979  00000+0 -46848-4 0  9993
2 48667  53.0561 338.6999 0001471  65.5739 294.5403 15.06393784 75766
STARLINK-2738           
1 48668U 21044AG  22276.21052553 -.00000923  00000+0 -43110-4 0  9993
2 48668  53.0550 338.7049 0001455  52.8731 307.2391 15.06398165 75828
STARLINK-2707           
1 48669U 21044AH  22276.20684208 -.00001031  00000+0 -50318-4 0  9990
2 48669  53.0568 338.7112 0001299  65.4899 294.6226 15.06396997 75759
STARLINK-2763           
1 48670U 21044AJ  22275.67237786  .00004131  00000+0  29605-3 0  9993
2 48670  53.0556 341.1107 0001709  59.6599 300.4559 15.06398989 74834
STARLINK-2745           
1 48671U 21044AK  22276.19946017 -.00000107  00000+0  11747-4 0  9995
2 48671  53.0562 338.7595 0001624  65.1326 294.9832 15.06404814 75759
STARLINK-2705           
1 48672U 21044AL  22275.66501085 -.00000734  00000+0 -30401-4 0  9994
2 48672  53.0550 341.1696 0001754  58.1557 301.9603 15.06397103 74834
STARLINK-2711           
1 48673U 21044AM  22275.59496706 -.00000073  00000+0  14033-4 0  9998
2 48673  53.0535 341.4836 0001656  63.6364 296.4795 15.06401839 74826
STARLINK-2712           
1 48674U 21044AN  22275.92207278 -.00000854  00000+0 -38427-4 0  9991
2 48674  53.0563 339.9993 0001674  59.4427 300.6727 15.06401713 75776
STARLINK-2737           
1 48675U 21044AP  22275.65394976  .00002759  00000+0  20399-3 0  9996
2 48675  53.0545 341.2178 0001578  60.0536 300.0609 15.06404388 74830
STARLINK-2746           
1 48676U 21044AQ  22275.91565345  .00004631  00000+0  32957-3 0  9990
2 48676  53.0548 340.0327 0001471  51.0065 309.1054 15.06401452 75773
STARLINK-2719           
1 48677U 21044AR  22275.57928049 -.00003257  00000+0 -19986-3 0  9999
2 48677  53.0549 341.5379 0001737  55.7707 304.3446 15.06391225 74820
STARLINK-2615           
1 48678U 21044AS  22276.17371888  .00024967  00000+0  16943-2 0  9998
2 48678  53.0566 338.8816 0001375  94.9163 265.1983 15.06285533 75751
STARLINK-2648           
1 48679U 21044AT  22276.16999099 -.00000893  00000+0 -41060-4 0  9992
2 48679  53.0551 338.9024 0001446  66.4936 293.6204 15.06385734 75755
STARLINK-2649           
1 48680U 21044AU  22275.90090655 -.00001491  00000+0 -81223-4 0  9995
2 48680  53.0549 340.1096 0001727  57.7627 302.3529 15.06396856 75777
STARLINK-2725           
1 48681U 21044AV  22275.83367802  .00001469  00000+0  11752-3 0  9991
2 48681  53.0559 310.6431 0001621  56.3907 303.7237 15.06401983 75277
STARLINK-2743           
1 48682U 21044AW  22275.91667824  .00034979  00000+0  23564-2 0  9993
2 48682  53.0548 300.1966 0001857  52.4380  53.1771 15.06386616  1303
STARLINK-2756           
1 48683U 21044AX  22276.18471724  .00001654  00000+0  12993-3 0  9995
2 48683  53.0540 298.8450 0001753  48.1134 312.0005 15.06401705 76318
STARLINK-2741           
1 48684U 21044AY  22275.80926673  .00001065  00000+0  90386-4 0  9991
2 48684  53.0546 315.8638 0001541  65.1201 294.9948 15.06404283 75207
STARLINK-2751           
1 48685U 21044AZ  22276.22157885  .00003376  00000+0  24532-3 0  9996
2 48685  53.0525 298.7182 0001641  59.5681 300.5470 15.06412436 76325
STARLINK-2629           
1 48686U 21044BA  22275.81755481  .00001737  00000+0  13545-3 0  9998
2 48686  53.0543 305.7576 0001775  44.6443 315.4689 15.06402134 76243
STARLINK-2627           
1 48687U 21044BB  22276.19070590  .00001104  00000+0  93001-4 0  9996
2 48687  53.0538 293.7989 0001510  62.6993 297.4149 15.06407816 76386
STARLINK-2742           
1 48688U 21044BC  22276.19439956 -.00000737  00000+0 -30599-4 0  9998
2 48688  53.0521 293.7846 0001644  53.1218 306.9921 15.06399134 76381
STARLINK-2617           
1 48689U 21044BD  22275.80139299  .00003383  00000+0  24593-3 0  9997
2 48689  53.0548 300.5250 0001454  65.4093 294.7048 15.06395591 75413
STARLINK-2740           
1 48690U 21044BE  22276.13957497  .00000645  00000+0  62195-4 0  9993
2 48690  53.0550 309.0335 0001564  62.6474 297.4674 15.06391671 76220
STARLINK-2750           
1 48691U 21044BF  22275.78065632 -.00000491  00000+0 -14092-4 0  9999
2 48691  53.0550 305.6470 0001558  52.1764 307.9366 15.06396097 75346
STARLINK-2752           
1 48692U 21044BG  22275.56687867 -.00000593  00000+0 -20894-4 0  9996
2 48692  53.0551 306.7231 0001584  68.7214 291.3944 15.06404731 75317
STARLINK-2618           
1 48693U 21044BH  22276.17178569  .00000258  00000+0  36191-4 0  9992
2 48693  53.0550 308.8827 0001673  67.0699 293.0466 15.06408248 76179
STARLINK-2748           
1 48694U 21044BJ  22276.14001155 -.00000957  00000+0 -45325-4 0  9993
2 48694  53.0548 314.0265 0001692  53.4330 306.6815 15.06402573 76099
STARLINK-2616           
1 48695U 21044BK  22276.09672123  .00002438  00000+0  18246-3 0  9992
2 48695  53.0542 314.2719 0001685  61.8347 298.2812 15.06410923 76151
STARLINK-2753           
1 48696U 21044BL  22275.82167026  .00000106  00000+0  26028-4 0  9992
2 48696  53.0560 320.4963 0001754  48.1669 311.9469 15.06392094 75141
STARLINK-2715           
1 48697U 21044BM  22276.11652111  .00000739  00000+0  68448-4 0  9994
2 48697  53.0554 319.1396 0001352  65.9826 294.1304 15.06412658 76023
